[{"OBJECT_NAME":"OBJECT M","OBJECT_ID":"2025-155M","EPOCH":"2026-03-09T22:37:12.666144","MEAN_MOTION":15.33288683,"ECCENTRICITY":0.00088001,"INCLINATION":97.4429,"RA_OF_ASC_NODE":38.1052,"ARG_OF_PERICENTER":139.1253,"MEAN_ANOMALY":221.0651,"EPHEMERIS_TYPE":0,"CLASSIFICATION_TYPE":"U","NORAD_CAT_ID":64887,"ELEMENT_SET_NO":999,"REV_AT_EPOCH":6565,"BSTAR":0.00087834095,"MEAN_MOTION_DOT":0.00028279,"MEAN_MOTION_DDOT":0},{"OBJECT_NAME":"STARLINK-35317","OBJECT_ID":"2025-243H","EPOCH":"2026-03-09T21:29:44.554848","MEAN_MOTION":15.30205848,"ECCENTRICITY":0.00010459,"INCLINATION":53.1585,"RA_OF_ASC_NODE":244.4158,"ARG_OF_PERICENTER":73.829,"MEAN_ANOMALY":286.2826,"EPHEMERIS_TYPE":0,"CLASSIFICATION_TYPE":"U","NORAD_CAT_ID":66184,"ELEMENT_SET_NO":999,"REV_AT_EPOCH":2068,"BSTAR":0.00098733239,"MEAN_MOTION_DOT":0.00029002,"MEAN_MOTION_DDOT":0}]
